{"type": "FeatureCollection", "features": [ {"type": "Feature", "properties": {"norad_id": 66969, "name": "STARLINK-36149", "group": "last-30-days", "lat": -37.938783707748826, "lon": 27.20676868186142, "alt_km": 388.21984022598735, "timestamp": "2025-12-26T09:30:52.343954+00:00", "meta": {"OBJECT_NAME": "STARLINK-36149", "OBJECT_ID": "2025-288L", "EPOCH": "2025-12-26T04:00:01.998720", "MEAN_MOTION": 15.61561047, "ECCENTRICITY": 0.000139, "INCLINATION": 42.9999, "RA_OF_ASC_NODE": 85.3539, "ARG_OF_PERICENTER": 279.6061, "MEAN_ANOMALY": 163.3143, "EPHEMERIS_TYPE": 0, "CLASSIFICATION_TYPE": "U", "NORAD_CAT_ID": 66969, "ELEMENT_SET_NO": 999, "REV_AT_EPOCH": 398, "BSTAR": -0.025142, "MEAN_MOTION_DOT": -0.01954562, "MEAN_MOTION_DDOT": 0}, "tle": {"line1": "1 66969U 25288L   25360.16668980 -.01954562  00000+0 -25142-1 0  9999", "line2": "2 66969  42.9999  85.3539 0001390 279.6061 163.3143 15.61561047  3984"}}, "geometry": {"type": "Point", "coordinates": [27.20676868186142, -37.938783707748826]}}, {"type": "Feature", "properties": {"norad_id": 66970, "name": "STARLINK-35703", "group": "last-30-days", "lat": -34.753891176512525, "lon": 35.846207873997486, "alt_km": 388.1898238893891, "timestamp": "2025-12-26T09:30:52.343965+00:00", "meta": {"OBJECT_NAME": "STARLINK-35703", "OBJECT_ID": "2025-288M", "EPOCH": "2025-12-26T04:00:01.998720", "MEAN_MOTION": 15.61573217, "ECCENTRICITY": 0.000126, "INCLINATION": 42.9999, "RA_OF_ASC_NODE": 85.3344, "ARG_OF_PERICENTER": 279.6905, "MEAN_ANOMALY": 170.8961, "EPHEMERIS_TYPE": 0, "CLASSIFICATION_TYPE": "U", "NORAD_CAT_ID": 66970, "ELEMENT_SET_NO": 999, "REV_AT_EPOCH": 398, "BSTAR": -0.025425, "MEAN_MOTION_DOT": -0.01974561, "MEAN_MOTION_DDOT": 0}, "tle": {"line1": "1 66970U 25288M   25360.16668980 -.01974561  00000+0 -25425-1 0  9996", "line2": "2 66970  42.9999  85.3344 0001260 279.6905 170.8961 15.61573217  3986"}}, "geometry": {"type": "Point", "coordinates": [35.846207873997486, -34.753891176512525]}}, {"type": "Feature", "properties": {"norad_id": 66971, "name": "STARLINK-35678", "group": "last-30-days", "lat": -40.43324411209096, "lon": 17.891013300508522, "alt_km": 388.191407711648, "timestamp": "2025-12-26T09:30:52.343975+00:00", "meta": {"OBJECT_NAME": "STARLINK-35678", "OBJECT_ID": "2025-288N", "EPOCH": "2025-12-26T04:00:01.998720", "MEAN_MOTION": 15.61555913, "ECCENTRICITY": 0.0001582, "INCLINATION": 43.0001, "RA_OF_ASC_NODE": 85.3753, "ARG_OF_PERICENTER": 275.9782, "MEAN_ANOMALY": 159.2842, "EPHEMERIS_TYPE": 0, "CLASSIFICATION_TYPE": "U", "NORAD_CAT_ID": 66971, "ELEMENT_SET_NO": 999, "REV_AT_EPOCH": 398, "BSTAR": -0.025061, "MEAN_MOTION_DOT": -0.01948756, "MEAN_MOTION_DDOT": 0}, "tle": {"line1": "1 66971U 25288N   25360.16668980 -.01948756  00000+0 -25061-1 0  9990", "line2": "2 66971  43.0001  85.3753 0001582 275.9782 159.2842 15.61555913  3988"}}, "geometry": {"type": "Point", "coordinates": [17.891013300508522, -40.43324411209096]}}, {"type": "Feature", "properties": {"norad_id": 66972, "name": "STARLINK-34846", "group": "last-30-days", "lat": -39.88196105494478, "lon": 20.27412912328041, "alt_km": 388.16661790559556, "timestamp": "2025-12-26T09:30:52.343985+00:00", "meta": {"OBJECT_NAME": "STARLINK-34846", "OBJECT_ID": "2025-288P", "EPOCH": "2025-12-26T04:00:01.998720", "MEAN_MOTION": 15.61563227, "ECCENTRICITY": 0.0001557, "INCLINATION": 42.9997, "RA_OF_ASC_NODE": 85.3701, "ARG_OF_PERICENTER": 278.3261, "MEAN_ANOMALY": 158.841, "EPHEMERIS_TYPE": 0, "CLASSIFICATION_TYPE": "U", "NORAD_CAT_ID": 66972, "ELEMENT_SET_NO": 999, "REV_AT_EPOCH": 398, "BSTAR": -0.025112, "MEAN_MOTION_DOT": -0.01952759, "MEAN_MOTION_DDOT": 0}, "tle": {"line1": "1 66972U 25288P   25360.16668980 -.01952759  00000+0 -25112-1 0  9996", "line2": "2 66972  42.9997  85.3701 0001557 278.3261 158.8410 15.61563227  3988"}}, "geometry": {"type": "Point", "coordinates": [20.27412912328041, -39.88196105494478]}}, {"type": "Feature", "properties": {"norad_id": 66973, "name": "STARLINK-35778", "group": "last-30-days", "lat": -39.28047879258357, "lon": 22.6268806681159, "alt_km": 388.248341113107, "timestamp": "2025-12-26T09:30:52.343995+00:00", "meta": {"OBJECT_NAME": "STARLINK-35778", "OBJECT_ID": "2025-288Q", "EPOCH": "2025-12-26T04:00:01.998720", "MEAN_MOTION": 15.61564576, "ECCENTRICITY": 0.0001389, "INCLINATION": 42.9997, "RA_OF_ASC_NODE": 85.3652, "ARG_OF_PERICENTER": 283.0127, "MEAN_ANOMALY": 156.0727, "EPHEMERIS_TYPE": 0, "CLASSIFICATION_TYPE": "U", "NORAD_CAT_ID": 66973, "ELEMENT_SET_NO": 999, "REV_AT_EPOCH": 398, "BSTAR": -0.025188, "MEAN_MOTION_DOT": -0.01957926, "MEAN_MOTION_DDOT": 0}, "tle": {"line1": "1 66973U 25288Q   25360.16668980 -.01957926  00000+0 -25188-1 0  9991", "line2": "2 66973  42.9997  85.3652 0001389 283.0127 156.0727 15.61564576  3980"}}, "geometry": {"type": "Point", "coordinates": [22.6268806681159, -39.28047879258357]}}, {"type": "Feature", "properties": {"norad_id": 66974, "name": "STARLINK-35780", "group": "last-30-days", "lat": -38.632333287674534, "lon": 24.93916388343001, "alt_km": 388.2577021266179, "timestamp": "2025-12-26T09:30:52.344004+00:00", "meta": {"OBJECT_NAME": "STARLINK-35780", "OBJECT_ID": "2025-288R", "EPOCH": "2025-12-26T04:00:01.998720", "MEAN_MOTION": 15.61569642, "ECCENTRICITY": 0.000134, "INCLINATION": 43.0002, "RA_OF_ASC_NODE": 85.36, "ARG_OF_PERICENTER": 282.9069, "MEAN_ANOMALY": 158.0937, "EPHEMERIS_TYPE": 0, "CLASSIFICATION_TYPE": "U", "NORAD_CAT_ID": 66974, "ELEMENT_SET_NO": 999, "REV_AT_EPOCH": 398, "BSTAR": -0.025311, "MEAN_MOTION_DOT": -0.01966635, "MEAN_MOTION_DDOT": 0}, "tle": {"line1": "1 66974U 25288R   25360.16668980 -.01966635  00000+0 -25311-1 0  9997", "line2": "2 66974  43.0002  85.3600 0001340 282.9069 158.0937 15.61569642  3987"}}, "geometry": {"type": "Point", "coordinates": [24.93916388343001, -38.632333287674534]}}, {"type": "Feature", "properties": {"norad_id": 66975, "name": "STARLINK-35777", "group": "last-30-days", "lat": -37.20209158611026, "lon": 29.433111260544244, "alt_km": 388.194291768782, "timestamp": "2025-12-26T09:30:52.344037+00:00", "meta": {"OBJECT_NAME": "STARLINK-35777", "OBJECT_ID": "2025-288S", "EPOCH": "2025-12-26T04:00:01.998720", "MEAN_MOTION": 15.61566477, "ECCENTRICITY": 0.0001392, "INCLINATION": 42.9998, "RA_OF_ASC_NODE": 85.3491, "ARG_OF_PERICENTER": 278.7251, "MEAN_ANOMALY": 166.1098, "EPHEMERIS_TYPE": 0, "CLASSIFICATION_TYPE": "U", "NORAD_CAT_ID": 66975, "ELEMENT_SET_NO": 999, "REV_AT_EPOCH": 398, "BSTAR": -0.025233, "MEAN_MOTION_DOT": -0.01961122, "MEAN_MOTION_DDOT": 0}, "tle": {"line1": "1 66975U 25288S   25360.16668980 -.01961122  00000+0 -25233-1 0  9997", "line2": "2 66975  42.9998  85.3491 0001392 278.7251 166.1098 15.61566477  3982"}}, "geometry": {"type": "Point", "coordinates": [29.433111260544244, -37.20209158611026]}}, {"type": "Feature", "properties": {"norad_id": 66976, "name": "STARLINK-35772", "group": "last-30-days", "lat": 39.71868235455848, "lon": -157.72634670919354, "alt_km": 438.4410898946089, "timestamp": "2025-12-26T09:30:52.344052+00:00", "meta": {"OBJECT_NAME": "STARLINK-35772", "OBJECT_ID": "2025-288T", "EPOCH": "2025-12-26T04:00:01.998720", "MEAN_MOTION": 15.40636944, "ECCENTRICITY": 0.0001238, "INCLINATION": 43.0004, "RA_OF_ASC_NODE": 86.6612, "ARG_OF_PERICENTER": 249.4191, "MEAN_ANOMALY": 25.1669, "EPHEMERIS_TYPE": 0, "CLASSIFICATION_TYPE": "U", "NORAD_CAT_ID": 66976, "ELEMENT_SET_NO": 999, "REV_AT_EPOCH": 398, "BSTAR": 0.0020471, "MEAN_MOTION_DOT": 0.00085996, "MEAN_MOTION_DDOT": 0}, "tle": {"line1": "1 66976U 25288T   25360.16668980  .00085996  00000+0  20471-2 0  9991", "line2": "2 66976  43.0004  86.6612 0001238 249.4191  25.1669 15.40636944  3981"}}, "geometry": {"type": "Point", "coordinates": [-157.72634670919354, 39.71868235455848]}}, {"type": "Feature", "properties": {"norad_id": 66977, "name": "STARLINK-35770", "group": "last-30-days", "lat": -36.423756210734794, "lon": 31.61811738858142, "alt_km": 388.29380274186315, "timestamp": "2025-12-26T09:30:52.344062+00:00", "meta": {"OBJECT_NAME": "STARLINK-35770", "OBJECT_ID": "2025-288U", "EPOCH": "2025-12-26T04:00:01.998720", "MEAN_MOTION": 15.61569232, "ECCENTRICITY": 0.0001213, "INCLINATION": 42.9998, "RA_OF_ASC_NODE": 85.3453, "ARG_OF_PERICENTER": 278.2729, "MEAN_ANOMALY": 168.4812, "EPHEMERIS_TYPE": 0, "CLASSIFICATION_TYPE": "U", "NORAD_CAT_ID": 66977, "ELEMENT_SET_NO": 999, "REV_AT_EPOCH": 398, "BSTAR": -0.025329, "MEAN_MOTION_DOT": -0.01967725, "MEAN_MOTION_DDOT": 0}, "tle": {"line1": "1 66977U 25288U   25360.16668980 -.01967725  00000+0 -25329-1 0  9990", "line2": "2 66977  42.9998  85.3453 0001213 278.2729 168.4812 15.61569232  3980"}}, "geometry": {"type": "Point", "coordinates": [31.61811738858142, -36.423756210734794]}}, {"type": "Feature", "properties": {"norad_id": 66978, "name": "STARLINK-35787", "group": "last-30-days", "lat": -33.86679307571055, "lon": 37.892110120199035, "alt_km": 388.1548538202451, "timestamp": "2025-12-26T09:30:52.344073+00:00", "meta": {"OBJECT_NAME": "STARLINK-35787", "OBJECT_ID": "2025-288V", "EPOCH": "2025-12-26T04:00:01.998720", "MEAN_MOTION": 15.61571365, "ECCENTRICITY": 0.0001222, "INCLINATION": 43, "RA_OF_ASC_NODE": 85.3302, "ARG_OF_PERICENTER": 282.5303, "MEAN_ANOMALY": 169.9713, "EPHEMERIS_TYPE": 0, "CLASSIFICATION_TYPE": "U", "NORAD_CAT_ID": 66978, "ELEMENT_SET_NO": 999, "REV_AT_EPOCH": 398, "BSTAR": -0.02536, "MEAN_MOTION_DOT": -0.01970031, "MEAN_MOTION_DDOT": 0}, "tle": {"line1": "1 66978U 25288V   25360.16668980 -.01970031  00000+0 -25360-1 0  9990", "line2": "2 66978  43.0000  85.3302 0001222 282.5303 169.9713 15.61571365  3982"}}, "geometry": {"type": "Point", "coordinates": [37.892110120199035, -33.86679307571055]}}]}